NORAD_CAT_ID,OBJECT_NAME,OBJECT_TYPE,EPOCH,MEAN_MOTION,ECCENTRICITY,INCLINATION,RA_OF_ASC_NODE,ARG_OF_PERICENTER,MEAN_ANOMALY,BSTAR,MEAN_MOTION_DOT,MEAN_MOTION_DDOT,TLE_LINE0,TLE_LINE1,TLE_LINE2,SEMIMAJOR_AXIS,PERIOD,APOGEE,PERIGEE,DECAYED
51759.0,STARLINK-3456,PAYLOAD,2023-04-29 22:02:22,15.08858904,0.0001145,53.2162,319.2804,45.6204,314.4882,0.00076,0.00011834,0.0,0 STARLINK-3456,1 51759U 22016AX  23119.91832009  .00011834  00000-0  76000-3 0  9999,2 51759  53.2162 319.2804 0001145  45.6204 314.4882 15.08858904 67110,6917.823,95.436,540.48,538.896,0.0
51759.0,STARLINK-3456,PAYLOAD,2023-04-30 13:56:14,15.08850474,9.8e-05,53.2164,316.3065,46.9994,313.108,0.00022707,3.329e-05,0.0,0 STARLINK-3456,1 51759U 22016AX  23120.58071872  .00003329  00000-0  22707-3 0  9992,2 51759  53.2164 316.3065 0000980  46.9994 313.1080 15.08850474 67216,6917.848,95.437,540.391,539.035,0.0
51759.0,STARLINK-3456,PAYLOAD,2023-05-01 12:11:38,15.08841396,9.14e-05,53.215,312.1448,58.7503,301.3579,0.00022078,3.228e-05,0.0,0 STARLINK-3456,1 51759U 22016AX  23121.50807928  .00003228  00000-0  22078-3 0  9993,2 51759  53.2150 312.1448 0000914  58.7503 301.3579 15.08841396 67354,6917.876,95.437,540.373,539.109,0.0
51759.0,STARLINK-3456,PAYLOAD,2023-05-01 20:08:33,15.08844166,0.0001015,53.2156,310.6567,53.2195,306.889,0.00012498,1.702e-05,0.0,0 STARLINK-3456,1 51759U 22016AX  23121.83927910  .00001702  00000-0  12498-3 0  9993,2 51759  53.2156 310.6567 0001015  53.2195 306.8890 15.08844166 66279,6917.868,95.437,540.435,539.03,0.0
51759.0,STARLINK-3456,PAYLOAD,2023-05-02 12:02:25,15.08841156,0.0001052,53.2156,307.6841,47.4236,312.6845,0.00011201,1.495e-05,0.0,0 STARLINK-3456,1 51759U 22016AX  23122.50168148  .00001495  00000-0  11201-3 0  9998,2 51759  53.2156 307.6841 0001052  47.4236 312.6845 15.08841156 67500,6917.877,95.437,540.47,539.014,0.0
51759.0,STARLINK-3456,PAYLOAD,2023-05-02 19:59:20,15.0884663,0.0001006,53.2158,306.197,52.6148,307.4935,0.00016156,2.285e-05,0.0,0 STARLINK-3456,1 51759U 22016AX  23122.83287890  .00002285  00000-0  16156-3 0  9992,2 51759  53.2158 306.1970 0001006  52.6148 307.4935 15.08846630 66422,6917.86,95.437,540.421,539.029,0.0
51759.0,STARLINK-3456,PAYLOAD,2023-05-03 05:31:39,15.08843114,0.0001015,53.216,304.4129,54.2067,305.9019,0.00014653,2.045e-05,0.0,0 STARLINK-3456,1 51759U 22016AX  23123.23032062  .00002045  00000-0  14653-3 0  9990,2 51759  53.2160 304.4129 0001015  54.2067 305.9019 15.08843114 66486,6917.871,95.437,540.438,539.034,0.0
51759.0,STARLINK-3456,PAYLOAD,2023-05-03 16:39:21,15.08837865,0.0001033,53.2158,302.3306,63.8959,296.2139,5.7177e-05,6.22e-06,0.0,0 STARLINK-3456,1 51759U 22016AX  23123.69400402  .00000622  00000-0  57177-4 0  9995,2 51759  53.2158 302.3306 0001033  63.8959 296.2139 15.08837865 67687,6917.887,95.438,540.467,539.037,0.0
51759.0,STARLINK-3456,PAYLOAD,2023-05-03 21:25:30,15.08855833,0.0001125,53.2162,301.439,79.5032,280.6087,-0.00029279,-4.947e-05,0.0,0 STARLINK-3456,1 51759U 22016AX  23123.89271321 -.00004947  00000-0 -29279-3 0  9990,2 51759  53.2162 301.4390 0001125  79.5032 280.6087 15.08855833 66585,6917.832,95.437,540.475,538.919,0.0
51759.0,STARLINK-3456,PAYLOAD,2023-05-04 05:22:26,15.08840618,0.0001091,53.2169,299.9517,69.4147,290.6963,8.9178e-05,1.132e-05,0.0,0 STARLINK-3456,1 51759U 22016AX  23124.22392300  .00001132  00000-0  89178-4 0  9995,2 51759  53.2169 299.9517 0001091  69.4147 290.6963 15.08840618 66636,6917.878,95.438,540.498,538.989,0.0
51759.0,STARLINK-3456,PAYLOAD,2023-05-04 21:16:17,15.08848442,9.09e-05,53.2164,296.9765,75.0321,285.0772,0.00011129,1.484e-05,0.0,0 STARLINK-3456,1 51759U 22016AX  23124.88631666  .00001484  00000-0  11129-3 0  9998,2 51759  53.2164 296.9765 0000909  75.0321 285.0772 15.08848442 67862,6917.855,95.437,540.348,539.091,0.0
51759.0,STARLINK-3456,PAYLOAD,2023-05-05 14:45:32,15.08837414,0.0001019,53.2173,293.7027,107.811,252.2993,5.7092e-05,6.21e-06,0.0,0 STARLINK-3456,1 51759U 22016AX  23125.61496517  .00000621  00000-0  57092-4 0  9996,2 51759  53.2173 293.7027 0001019 107.8110 252.2993 15.08837414 67971,6917.888,95.438,540.458,539.048,0.0
51759.0,STARLINK-3456,PAYLOAD,2023-05-05 17:56:19,15.08838464,0.0001019,53.2169,293.1111,76.299,283.8116,6.5155e-05,7.49e-06,0.0,0 STARLINK-3456,1 51759U 22016AX  23125.74744559  .00000749  00000-0  65155-4 0  9992,2 51759  53.2169 293.1111 0001019  76.2990 283.8116 15.08838464 66869,6917.885,95.438,540.455,539.045,0.0
51759.0,STARLINK-3456,PAYLOAD,2023-05-06 11:25:33,15.08841958,8.08e-05,53.2172,289.8408,72.6595,287.4486,0.00012024,1.627e-05,0.0,0 STARLINK-3456,1 51759U 22016AX  23126.47608441  .00001627  00000-0  12024-3 0  9994,2 51759  53.2172 289.8408 0000808  72.6595 287.4486 15.08841958 66974,6917.874,95.437,540.298,539.18,0.0
51759.0,STARLINK-3456,PAYLOAD,2023-05-07 03:19:24,15.08844685,7.9e-05,53.2142,286.8679,73.1222,286.9857,6.9018e-05,8.11e-06,0.0,0 STARLINK-3456,1 51759U 22016AX  23127.13848190  .00000811  00000-0  69018-4 0  9995,2 51759  53.2142 286.8679 0000790  73.1222 286.9857 15.08844685 68205,6917.866,95.437,540.278,539.185,0.0
51759.0,STARLINK-3456,PAYLOAD,2023-05-07 17:37:53,15.08836522,9.31e-05,53.2158,284.1908,89.2827,270.8272,5.8383e-05,6.41e-06,0.0,0 STARLINK-3456,1 51759U 22016AX  23127.73464826  .00000641  00000-0  58383-4 0  9995,2 51759  53.2158 284.1908 0000931  89.2827 270.8272 15.08836522 68297,6917.891,95.438,540.4,539.112,0.0
51759.0,STARLINK-3456,PAYLOAD,2023-05-08 17:28:40,15.08849226,8.83e-05,53.2156,279.7305,92.2279,267.8815,0.00061257,9.477e-05,0.0,0 STARLINK-3456,1 51759U 22016AX  23128.72824648  .00009477  00000-0  61257-3 0  9996,2 51759  53.2156 279.7305 0000883  92.2279 267.8815 15.08849226 67313,6917.852,95.437,540.328,539.106,0.0
51759.0,STARLINK-3456,PAYLOAD,2023-05-09 14:08:41,15.08838139,8.83e-05,53.2157,275.8663,77.0101,283.0989,9.1736e-05,1.172e-05,0.0,0 STARLINK-3456,1 51759U 22016AX  23129.58936961  .00001172  00000-0  91736-4 0  9993,2 51759  53.2157 275.8663 0000883  77.0101 283.0989 15.08838139 67440,6917.886,95.438,540.362,539.14,0.0
51759.0,STARLINK-3456,PAYLOAD,2023-05-10 02:51:46,15.08842094,8.57e-05,53.2157,273.4868,88.7977,271.3113,9.4043e-05,1.209e-05,0.0,0 STARLINK-3456,1 51759U 22016AX  23130.11928862  .00001209  00000-0  94043-4 0  9990,2 51759  53.2157 273.4868 0000857  88.7977 271.3113 15.08842094 67525,6917.874,95.437,540.332,539.146,0.0
51759.0,STARLINK-3456,PAYLOAD,2023-05-10 17:10:14,15.08845656,0.0001076,53.2172,270.8065,88.0384,272.0732,6.6721e-05,7.74e-06,0.0,0 STARLINK-3456,1 51759U 22016AX  23130.71544826  .00000774  00000-0  66721-4 0  9998,2 51759  53.2172 270.8065 0001076  88.0384 272.0732 15.08845656 67613,6917.863,95.437,540.472,538.984,0.0
51759.0,STARLINK-3456,PAYLOAD,2023-05-11 12:14:52,15.08839318,8.37e-05,53.2163,267.2396,112.2115,247.8966,0.00011546,1.55e-05,0.0,0 STARLINK-3456,1 51759U 22016AX  23131.51033029  .00001550  00000-0  11546-3 0  9992,2 51759  53.2163 267.2396 0000837 112.2115 247.8966 15.08839318 67736,6917.882,95.438,540.327,539.168,0.0
51759.0,STARLINK-3456,PAYLOAD,2023-05-11 15:25:38,15.08842275,9.19e-05,53.2155,266.6458,99.8873,260.2222,0.00016117,2.278e-05,0.0,0 STARLINK-3456,1 51759U 22016AX  23131.64281039  .00002278  00000-0  16117-3 0  9999,2 51759  53.2155 266.6458 0000919  99.8873 260.2222 15.08842275 67753,6917.873,95.437,540.374,539.103,0.0
51759.0,STARLINK-3456,PAYLOAD,2023-05-12 02:33:20,15.08844759,8.37e-05,53.2147,264.5657,99.2414,260.8673,0.00010661,1.41e-05,0.0,0 STARLINK-3456,1 51759U 22016AX  23132.10648899  .00001410  00000-0  10661-3 0  9997,2 51759  53.2147 264.5657 0000837  99.2414 260.8673 15.08844759 67829,6917.866,95.437,540.31,539.152,0.0
51759.0,STARLINK-3456,PAYLOAD,2023-05-12 15:16:26,15.0883773,8.51e-05,53.2151,262.1845,104.2917,255.817,0.00010399,1.368e-05,0.0,0 STARLINK-3456,1 51759U 22016AX  23132.63641278  .00001368  00000-0  10399-3 0  9999,2 51759  53.2151 262.1845 0000851 104.2917 255.8170 15.08837730 69030,6917.887,95.438,540.341,539.164,0.0
51759.0,STARLINK-3456,PAYLOAD,2023-05-13 13:31:49,15.08841619,9.76e-05,53.2165,258.021,112.9997,247.1098,9.4768e-05,1.221e-05,0.0,0 STARLINK-3456,1 51759U 22016AX  23133.56376908  .00001221  00000-0  94768-4 0  9998,2 51759  53.2165 258.0210 0000976 112.9997 247.1098 15.08841619 68041,6917.875,95.437,540.416,539.065,0.0
51759.0,STARLINK-3456,PAYLOAD,2023-05-13 15:07:12,15.08845929,0.0001065,53.2163,257.7234,119.5954,240.5145,6.6028e-05,7.63e-06,0.0,0 STARLINK-3456,1 51759U 22016AX  23133.63000695  .00000763  00000-0  66028-4 0  9991,2 51759  53.2163 257.7234 0001065 119.5954 240.5145 15.08845929 68056,6917.862,95.437,540.464,538.991,0.0
51759.0,STARLINK-3456,PAYLOAD,2023-05-14 00:39:31,15.08846928,0.0001073,53.2164,255.9395,118.2918,241.8182,6.2337e-05,7.05e-06,0.0,0 STARLINK-3456,1 51759U 22016AX  23134.02744502  .00000705  00000-0  62337-4 0  9992,2 51759  53.2164 255.9395 0001073 118.2918 241.8182 15.08846928 69247,6917.859,95.437,540.466,538.982,0.0
51759.0,STARLINK-3456,PAYLOAD,2023-05-14 13:22:37,15.08834734,0.0001069,53.2171,253.56,99.1254,260.9859,6.8531e-05,8.03e-06,0.0,0 STARLINK-3456,1 51759U 22016AX  23134.55737589  .00000803  00000-0  68531-4 0  9998,2 51759  53.2171 253.5600 0001069  99.1254 260.9859 15.08834734 69327,6917.896,95.438,540.501,539.022,0.0
51759.0,STARLINK-3456,PAYLOAD,2023-05-14 14:58:00,15.08839207,0.0001078,53.2171,253.2626,92.8099,267.3017,3.4916e-05,2.68e-06,0.0,0 STARLINK-3456,1 51759U 22016AX  23134.62361447  .00000268  00000-0  34916-4 0  9997,2 51759  53.2171 253.2626 0001078  92.8099 267.3017 15.08839207 68202,6917.883,95.438,540.494,539.002,0.0
51759.0,STARLINK-3456,PAYLOAD,2023-05-15 11:38:01,15.08837849,0.0001032,53.2169,249.3993,90.6582,269.4528,5.4764e-06,-2.01e-06,0.0,0 STARLINK-3456,1 51759U 22016AX  23135.48473861 -.00000201  00000-0  54764-5 0  9998,2 51759  53.2169 249.3993 0001032  90.6582 269.4528 15.08837849 68339,6917.887,95.438,540.466,539.038,0.0
